CCSDS_OMM_VERS = 2.0
CREATION_DATE  = 
ORIGINATOR     = 

OBJECT_NAME    = DELTA 2 R/B(1)
OBJECT_ID      = 1990-008B
CENTER_NAME    = EARTH
REF_FRAME      = TEME
TIME_SYSTEM    = UTC
MEAN_ELEMENT_THEORY = SGP/SGP4

EPOCH          = 2025-12-20T05:51:12.805344
MEAN_MOTION    = 15.45794805
ECCENTRICITY   = .011115
INCLINATION    = 35.6080
RA_OF_ASC_NODE = 332.0527
ARG_OF_PERICENTER = 246.6814
MEAN_ANOMALY   = 112.2190

EPHEMERIS_TYPE = 0
CLASSIFICATION_TYPE = U
NORAD_CAT_ID   = 20453
ELEMENT_SET_NO = 999
REV_AT_EPOCH   = 91379
BSTAR          = .53658E-3
MEAN_MOTION_DOT = .34193E-3
MEAN_MOTION_DDOT = 0

CCSDS_OMM_VERS = 2.0
CREATION_DATE  = 
ORIGINATOR     = 

OBJECT_NAME    = COSMOS 2058
OBJECT_ID      = 1990-010A
CENTER_NAME    = EARTH
REF_FRAME      = TEME
TIME_SYSTEM    = UTC
MEAN_ELEMENT_THEORY = SGP/SGP4

EPOCH          = 2025-12-20T18:33:54.365760
MEAN_MOTION    = 15.10543852
ECCENTRICITY   = .00090076
INCLINATION    = 82.4699
RA_OF_ASC_NODE = 125.1286
ARG_OF_PERICENTER = 240.8493
MEAN_ANOMALY   = 119.1836

EPHEMERIS_TYPE = 0
CLASSIFICATION_TYPE = U
NORAD_CAT_ID   = 20465
ELEMENT_SET_NO = 999
REV_AT_EPOCH   = 93032
BSTAR          = .21781451E-3
MEAN_MOTION_DOT = .3622E-4
MEAN_MOTION_DDOT = 0

CCSDS_OMM_VERS = 2.0
CREATION_DATE  = 
ORIGINATOR     = 

OBJECT_NAME    = SL-14 R/B
OBJECT_ID      = 1990-010B
CENTER_NAME    = EARTH
REF_FRAME      = TEME
TIME_SYSTEM    = UTC
MEAN_ELEMENT_THEORY = SGP/SGP4

EPOCH          = 2025-12-20T10:26:12.410304
MEAN_MOTION    = 14.83477819
ECCENTRICITY   = .0019286
INCLINATION    = 82.5020
RA_OF_ASC_NODE = 341.8195
ARG_OF_PERICENTER = 196.6707
MEAN_ANOMALY   = 163.3877

EPHEMERIS_TYPE = 0
CLASSIFICATION_TYPE = U
NORAD_CAT_ID   = 20466
ELEMENT_SET_NO = 999
REV_AT_EPOCH   = 91673
BSTAR          = .38244617E-4
MEAN_MOTION_DOT = .339E-5
MEAN_MOTION_DDOT = 0

CCSDS_OMM_VERS = 2.0
CREATION_DATE  = 
ORIGINATOR     = 

OBJECT_NAME    = SL-14 R/B
OBJECT_ID      = 1990-018B
CENTER_NAME    = EARTH
REF_FRAME      = TEME
TIME_SYSTEM    = UTC
MEAN_ELEMENT_THEORY = SGP/SGP4

EPOCH          = 2025-12-20T21:59:52.316736
MEAN_MOTION    = 14.82054366
ECCENTRICITY   = .00162905
INCLINATION    = 82.5216
RA_OF_ASC_NODE = 296.7221
ARG_OF_PERICENTER = 357.0104
MEAN_ANOMALY   = 3.1010

EPHEMERIS_TYPE = 0
CLASSIFICATION_TYPE = U
NORAD_CAT_ID   = 20511
ELEMENT_SET_NO = 999
REV_AT_EPOCH   = 91091
BSTAR          = .44046404E-4
MEAN_MOTION_DOT = .374E-5
MEAN_MOTION_DDOT = 0

CCSDS_OMM_VERS = 2.0
CREATION_DATE  = 
ORIGINATOR     = 

OBJECT_NAME    = HST
OBJECT_ID      = 1990-037B
CENTER_NAME    = EARTH
REF_FRAME      = TEME
TIME_SYSTEM    = UTC
MEAN_ELEMENT_THEORY = SGP/SGP4

EPOCH          = 2025-12-20T22:56:12.089472
MEAN_MOTION    = 15.28150746
ECCENTRICITY   = .00021479
INCLINATION    = 28.4662
RA_OF_ASC_NODE = 216.5634
ARG_OF_PERICENTER = 340.2259
MEAN_ANOMALY   = 19.8253

EPHEMERIS_TYPE = 0
CLASSIFICATION_TYPE = U
NORAD_CAT_ID   = 20580
ELEMENT_SET_NO = 999
REV_AT_EPOCH   = 76125
BSTAR          = .15691711E-3
MEAN_MOTION_DOT = .4654E-4
MEAN_MOTION_DDOT = 0

CCSDS_OMM_VERS = 2.0
CREATION_DATE  = 
ORIGINATOR     = 

OBJECT_NAME    = SL-16 R/B
OBJECT_ID      = 1990-046B
CENTER_NAME    = EARTH
REF_FRAME      = TEME
TIME_SYSTEM    = UTC
MEAN_ELEMENT_THEORY = SGP/SGP4

EPOCH          = 2025-12-20T15:55:22.933632
MEAN_MOTION    = 14.14998786
ECCENTRICITY   = .00120411
INCLINATION    = 70.9992
RA_OF_ASC_NODE = 103.8815
ARG_OF_PERICENTER = 59.2567
MEAN_ANOMALY   = 300.9740

EPHEMERIS_TYPE = 0
CLASSIFICATION_TYPE = U
NORAD_CAT_ID   = 20625
ELEMENT_SET_NO = 999
REV_AT_EPOCH   = 83721
BSTAR          = -.11703398E-3
MEAN_MOTION_DOT = -.274E-5
MEAN_MOTION_DDOT = 0

CCSDS_OMM_VERS = 2.0
CREATION_DATE  = 
ORIGINATOR     = 

OBJECT_NAME    = COSMOS 2084
OBJECT_ID      = 1990-055A
CENTER_NAME    = EARTH
REF_FRAME      = TEME
TIME_SYSTEM    = UTC
MEAN_ELEMENT_THEORY = SGP/SGP4

EPOCH          = 2025-12-20T20:57:23.998752
MEAN_MOTION    = 15.05062954
ECCENTRICITY   = .00304066
INCLINATION    = 62.7896
RA_OF_ASC_NODE = 244.2790
ARG_OF_PERICENTER = 175.7879
MEAN_ANOMALY   = 184.3483

EPHEMERIS_TYPE = 0
CLASSIFICATION_TYPE = U
NORAD_CAT_ID   = 20663
ELEMENT_SET_NO = 999
REV_AT_EPOCH   = 92445
BSTAR          = .13449591E-3
MEAN_MOTION_DOT = .1733E-4
MEAN_MOTION_DDOT = 0

CCSDS_OMM_VERS = 2.0
CREATION_DATE  = 
ORIGINATOR     = 

OBJECT_NAME    = SL-6 R/B(2)
OBJECT_ID      = 1990-055D
CENTER_NAME    = EARTH
REF_FRAME      = TEME
TIME_SYSTEM    = UTC
MEAN_ELEMENT_THEORY = SGP/SGP4

EPOCH          = 2025-12-20T19:36:41.972544
MEAN_MOTION    = 15.03107244
ECCENTRICITY   = .00135905
INCLINATION    = 62.7811
RA_OF_ASC_NODE = 161.9690
ARG_OF_PERICENTER = 314.3912
MEAN_ANOMALY   = 45.6073

EPHEMERIS_TYPE = 0
CLASSIFICATION_TYPE = U
NORAD_CAT_ID   = 20666
ELEMENT_SET_NO = 999
REV_AT_EPOCH   = 92633
BSTAR          = .123003E-3
MEAN_MOTION_DOT = .1472E-4
MEAN_MOTION_DDOT = 0

CCSDS_OMM_VERS = 2.0
CREATION_DATE  = 
ORIGINATOR     = 

OBJECT_NAME    = SL-8 R/B
OBJECT_ID      = 1990-078B
CENTER_NAME    = EARTH
REF_FRAME      = TEME
TIME_SYSTEM    = UTC
MEAN_ELEMENT_THEORY = SGP/SGP4

EPOCH          = 2025-12-20T21:04:34.102272
MEAN_MOTION    = 14.86230460
ECCENTRICITY   = .03707322
INCLINATION    = 82.9051
RA_OF_ASC_NODE = 322.0227
ARG_OF_PERICENTER = 278.5068
MEAN_ANOMALY   = 77.4306

EPHEMERIS_TYPE = 0
CLASSIFICATION_TYPE = U
NORAD_CAT_ID   = 20775
ELEMENT_SET_NO = 999
REV_AT_EPOCH   = 79758
BSTAR          = .40542894E-3
MEAN_MOTION_DOT = .13122E-3
MEAN_MOTION_DDOT = 0

CCSDS_OMM_VERS = 2.0
CREATION_DATE  = 
ORIGINATOR     = 

OBJECT_NAME    = SL-8 R/B
OBJECT_ID      = 1991-006B
CENTER_NAME    = EARTH
REF_FRAME      = TEME
TIME_SYSTEM    = UTC
MEAN_ELEMENT_THEORY = SGP/SGP4

EPOCH          = 2025-12-20T22:46:08.803200
MEAN_MOTION    = 13.77491544
ECCENTRICITY   = .00211815
INCLINATION    = 82.9419
RA_OF_ASC_NODE = 228.6069
ARG_OF_PERICENTER = 255.4020
MEAN_ANOMALY   = 115.8752

EPHEMERIS_TYPE = 0
CLASSIFICATION_TYPE = U
NORAD_CAT_ID   = 21088
ELEMENT_SET_NO = 999
REV_AT_EPOCH   = 75323
BSTAR          = .10283805E-3
MEAN_MOTION_DOT = .117E-5
MEAN_MOTION_DDOT = 0

CCSDS_OMM_VERS = 2.0
CREATION_DATE  = 
ORIGINATOR     = 

OBJECT_NAME    = OKEAN-3
OBJECT_ID      = 1991-039A
CENTER_NAME    = EARTH
REF_FRAME      = TEME
TIME_SYSTEM    = UTC
MEAN_ELEMENT_THEORY = SGP/SGP4

EPOCH          = 2025-12-20T22:20:59.301024
MEAN_MOTION    = 15.04168876
ECCENTRICITY   = .00134962
INCLINATION    = 82.5175
RA_OF_ASC_NODE = 53.1195
ARG_OF_PERICENTER = 234.6787
MEAN_ANOMALY   = 125.3178

EPHEMERIS_TYPE = 0
CLASSIFICATION_TYPE = U
NORAD_CAT_ID   = 21397
ELEMENT_SET_NO = 999
REV_AT_EPOCH   = 85319
BSTAR          = .1328188E-3
MEAN_MOTION_DOT = .1873E-4
MEAN_MOTION_DDOT = 0

CCSDS_OMM_VERS = 2.0
CREATION_DATE  = 
ORIGINATOR     = 

OBJECT_NAME    = COSMOS 2151
OBJECT_ID      = 1991-042A
CENTER_NAME    = EARTH
REF_FRAME      = TEME
TIME_SYSTEM    = UTC
MEAN_ELEMENT_THEORY = SGP/SGP4

EPOCH          = 2025-12-20T21:31:14.471328
MEAN_MOTION    = 14.99714422
ECCENTRICITY   = .00118878
INCLINATION    = 82.4963
RA_OF_ASC_NODE = 159.6423
ARG_OF_PERICENTER = 331.4422
MEAN_ANOMALY   = 28.6149

EPHEMERIS_TYPE = 0
CLASSIFICATION_TYPE = U
NORAD_CAT_ID   = 21422
ELEMENT_SET_NO = 999
REV_AT_EPOCH   = 85138
BSTAR          = .10759043E-3
MEAN_MOTION_DOT = .1356E-4
MEAN_MOTION_DDOT = 0

