DELTA 2 R/B(1)          
1 20453U 90008B   25354.24389821  .00034193  00000+0  53658-3 0  9996
2 20453  35.6080 332.0527 0111150 246.6814 112.2190 15.45794805913793
COSMOS 2058             
1 20465U 90010A   25354.77354590  .00003622  00000+0  21781-3 0  9990
2 20465  82.4699 125.1286 0009007 240.8493 119.1836 15.10543852930328
SL-14 R/B               
1 20466U 90010B   25354.43486586  .00000339  00000+0  38245-4 0  9991
2 20466  82.5020 341.8195 0019286 196.6707 163.3877 14.83477819916733
SL-14 R/B               
1 20511U 90018B   25354.91657774  .00000374  00000+0  44046-4 0  9997
2 20511  82.5216 296.7221 0016290 357.0104   3.1010 14.82054366910916
HST                     
1 20580U 90037B   25354.95569548  .00004654  00000+0  15692-3 0  9998
2 20580  28.4662 216.5634 0002147 340.2259  19.8253 15.28150746761259
SL-16 R/B               
1 20625U 90046B   25354.66345988 -.00000274  00000+0 -11703-3 0  9991
2 20625  70.9992 103.8815 0012041  59.2567 300.9740 14.14998786837212
COSMOS 2084             
1 20663U 90055A   25354.87319443  .00001733  00000+0  13450-3 0  9993
2 20663  62.7896 244.2790 0030406 175.7879 184.3483 15.05062954924454
SL-6 R/B(2)             
1 20666U 90055D   25354.81715246  .00001472  00000+0  12300-3 0  9994
2 20666  62.7811 161.9690 0013590 314.3912  45.6073 15.03107244926335
SL-8 R/B                
1 20775U 90078B   25354.87817248  .00013122  00000+0  40543-3 0  9996
2 20775  82.9051 322.0227 0370732 278.5068  77.4306 14.86230460797581
SL-8 R/B                
1 21088U 91006B   25354.94871300  .00000117  00000+0  10284-3 0  9992
2 21088  82.9419 228.6069 0021181 255.4020 115.8752 13.77491544753232
OKEAN-3                 
1 21397U 91039A   25354.93124191  .00001873  00000+0  13282-3 0  9990
2 21397  82.5175  53.1195 0013496 234.6787 125.3178 15.04168876853195
COSMOS 2151             
1 21422U 91042A   25354.89669527  .00001356  00000+0  10759-3 0  9997
2 21422  82.4963 159.6423 0011887 331.4422  28.6149 14.99714422851387
